{
    "satellites": [
        {
            "name": "starlink319",
            "title": "Starlink-319 (G11-14)",
            "tle": [
                "1 70757C 25254AB  25319.10881944 -.01461500  00000+0 -42407-2 0  3192",
                "2 70757  53.1564  52.4178 0000883  72.9756 342.7328 15.93685690    16"
            ],
            "stdMag": 5,
            "noradId": "70757",
            "tleUrl": "http://celestrak.org/NORAD/elements/supplemental/sup-gp.php?FILE=starlink&FORMAT=tle",
            "launchDate": "2025-11-06T21:13:50.000Z",
            "active": true,
            "batch": [
                {
                    "noradId": "70757",
                    "tle": [
                        "1 70757C 25254AB  25319.10881944 -.01461500  00000+0 -42407-2 0  3192",
                        "2 70757  53.1564  52.4178 0000883  72.9756 342.7328 15.93685690    16"
                    ]
                },
                {
                    "noradId": "70759",
                    "tle": [
                        "1 70759C 25254AD  25319.11090278 -.01492800  00000+0 -43084-2 0  3196",
                        "2 70759  53.1567  52.3984 0001109  55.4314  16.4781 15.93820752    11"
                    ]
                },
                {
                    "noradId": "70758",
                    "tle": [
                        "1 70758C 25254AC  25319.11159722 -.01479200  00000+0 -42811-2 0  3191",
                        "2 70758  53.1567  52.3989 0001036  53.5694  20.3595 15.93753542    13"
                    ]
                },
                {
                    "noradId": "70755",
                    "tle": [
                        "1 70755C 25254Z   25319.10743056 -.01453100  00000+0 -42267-2 0  3192",
                        "2 70755  53.1567  52.4292 0000973  64.4666 341.3580 15.93629632    19"
                    ]
                },
                {
                    "noradId": "70756",
                    "tle": [
                        "1 70756C 25254AA  25319.10673611 -.01439900  00000+0 -42021-2 0  3192",
                        "2 70756  53.1571  52.4384 0000948  73.1589 325.9469 15.93553787    11"
                    ]
                },
                {
                    "noradId": "70754",
                    "tle": [
                        "1 70754C 25254Y   25319.10534722 -.01431700  00000+0 -41903-2 0  3197",
                        "2 70754  53.1567  52.4508 0000818  69.1475 319.4120 15.93489423    14"
                    ]
                },
                {
                    "noradId": "70752",
                    "tle": [
                        "1 70752C 25254W   25319.10673611 -.01426200  00000+0 -41876-2 0  3194",
                        "2 70752  53.1565  52.4481 0000760  68.9274 325.3590 15.93423048    18"
                    ]
                },
                {
                    "noradId": "70753",
                    "tle": [
                        "1 70753C 25254X   25319.10951389 -.01421100  00000+0 -41859-2 0  3191",
                        "2 70753  53.1567  52.4386 0000845  77.9807 330.1270 15.93356201    16"
                    ]
                },
                {
                    "noradId": "70751",
                    "tle": [
                        "1 70751C 25254V   25319.10395833 -.01416600  00000+0 -41808-2 0  3198",
                        "2 70751  53.1570  52.4718 0000937  66.2146 307.7812 15.93313326    19"
                    ]
                },
                {
                    "noradId": "70749",
                    "tle": [
                        "1 70749C 25254T   25319.10326389 -.01412100  00000+0 -41786-2 0  3191",
                        "2 70749  53.1572  52.4799 0000738  70.3741 297.5615 15.93258012    10"
                    ]
                },
                {
                    "noradId": "70750",
                    "tle": [
                        "1 70750C 25254U   25319.11159722 -.01403900  00000+0 -41719-2 0  3193",
                        "2 70750  53.1571  52.4426 0000982  70.7940 342.3181 15.93167595    16"
                    ]
                },
                {
                    "noradId": "70748",
                    "tle": [
                        "1 70748C 25254S   25319.06020833 -.01400400  00000+0 -41425-2 0  3190",
                        "2 70748  53.1568  52.7099 0000825  74.5216  41.1977 15.93253203    11"
                    ]
                },
                {
                    "noradId": "70747",
                    "tle": [
                        "1 70747C 25254R   25319.11020833 -.01384500  00000+0 -41478-2 0  3195",
                        "2 70747  53.1570  52.4646 0000807  66.8656 331.1662 15.92990710    13"
                    ]
                },
                {
                    "noradId": "70746",
                    "tle": [
                        "1 70746C 25254Q   25319.10395833 -.01392200  00000+0 -41562-2 0  3198",
                        "2 70746  53.1570  52.4922 0000700  64.2265 300.1489 15.93067325    10"
                    ]
                },
                {
                    "noradId": "70745",
                    "tle": [
                        "1 70745C 25254P   25319.10951389 -.01372200  00000+0 -41325-2 0  3196",
                        "2 70745  53.1573  52.4777 0000969  76.0957 313.4582 15.92876753    19"
                    ]
                },
                {
                    "noradId": "70744",
                    "tle": [
                        "1 70744C 25254N   25319.10743056 -.01377200  00000+0 -41362-2 0  3191",
                        "2 70744  53.1570  52.4840 0000804  69.5610 310.0410 15.92936535    15"
                    ]
                },
                {
                    "noradId": "70743",
                    "tle": [
                        "1 70743C 25254M   25319.10465278 -.01362600  00000+0 -41121-2 0  3198",
                        "2 70743  53.1573  52.5080 0000805  64.8381 294.2885 15.92827091    13"
                    ]
                },
                {
                    "noradId": "70742",
                    "tle": [
                        "1 70742C 25254L   25319.11090278 -.01356800  00000+0 -41090-2 0  3192",
                        "2 70742  53.1573  52.4807 0000938  77.5543 315.0527 15.92753417    11"
                    ]
                },
                {
                    "noradId": "70741",
                    "tle": [
                        "1 70741C 25254K   25319.11159722 -.01348900  00000+0 -40968-2 0  3196",
                        "2 70741  53.1573  52.4825 0000788  68.5149 325.5273 15.92690427    10"
                    ]
                },
                {
                    "noradId": "70740",
                    "tle": [
                        "1 70740C 25254J   25319.10812500 -.01342300  00000+0 -40854-2 0  3196",
                        "2 70740  53.1573  52.5054 0000661  73.2469 298.4364 15.92642469    14"
                    ]
                },
                {
                    "noradId": "70739",
                    "tle": [
                        "1 70739C 25254H   25319.11229167 -.01336300  00000+0 -40793-2 0  3191",
                        "2 70739  53.1575  52.4885 0000838  69.1803 324.4127 15.92578101    15"
                    ]
                },
                {
                    "noradId": "70738",
                    "tle": [
                        "1 70738C 25254G   25319.11159722 -.01329400  00000+0 -40682-2 0  3199",
                        "2 70738  53.1570  52.4969 0000697  68.8737 318.3168 15.92523098    19"
                    ]
                },
                {
                    "noradId": "70737",
                    "tle": [
                        "1 70737C 25254F   25319.05951389 -.01325200  00000+0 -40370-2 0  3198",
                        "2 70737  53.1572  52.7674 0000910  72.6304  13.5668 15.92608050    18"
                    ]
                },
                {
                    "noradId": "70736",
                    "tle": [
                        "1 70736C 25254E   25319.10604167 -.01315200  00000+0 -40419-2 0  3195",
                        "2 70736  53.1574  52.5346 0000729  72.0102 278.8639 15.92426633    10"
                    ]
                },
                {
                    "noradId": "70735",
                    "tle": [
                        "1 70735C 25254D   25319.10534722 -.01310000  00000+0 -40351-2 0  3191",
                        "2 70735  53.1574  52.5425 0000696  70.6550 274.1740 15.92377423    15"
                    ]
                },
                {
                    "noradId": "70734",
                    "tle": [
                        "1 70734C 25254C   25319.10534722 -.01305600  00000+0 -40313-2 0  3198",
                        "2 70734  53.1576  52.5475 0000687  66.5990 275.9956 15.92325849    16"
                    ]
                },
                {
                    "noradId": "70733",
                    "tle": [
                        "1 70733C 25254B   25319.10465278 -.01294700  00000+0 -40078-2 0  3192",
                        "2 70733  53.1579  52.5569 0000660  76.3167 259.4874 15.92264696    16"
                    ]
                },
                {
                    "noradId": "70732",
                    "tle": [
                        "1 70732C 25254A   25319.11159722 -.01292700  00000+0 -40134-2 0  3197",
                        "2 70732  53.1578  52.5249 0000786  66.8979 307.2657 15.92205813    10"
                    ]
                }
            ]
        }
    ],
    "config": {}
}